NORAD_CAT_ID,OBJECT_NAME,OBJECT_TYPE,EPOCH,MEAN_MOTION,ECCENTRICITY,INCLINATION,RA_OF_ASC_NODE,ARG_OF_PERICENTER,MEAN_ANOMALY,BSTAR,MEAN_MOTION_DOT,MEAN_MOTION_DDOT,TLE_LINE0,TLE_LINE1,TLE_LINE2,SEMIMAJOR_AXIS,PERIOD,APOGEE,PERIGEE,DECAYED
50845.0,STARLINK-3230,PAYLOAD,2023-08-27 09:38:18,15.08836678,0.0001355,53.2201,12.9048,99.3492,260.7653,2.3696e-05,8.9e-07,0.0,0 STARLINK-3230,1 50845U 22001AU  23239.40160834  .00000089  00000-0  23696-4 0  9999,2 50845  53.2201  12.9048 0001355  99.3492 260.7653 15.08836678 90584,6917.891,95.438,540.693,538.818,0.0
50845.0,STARLINK-3230,PAYLOAD,2023-08-27 14:24:28,15.08839548,0.0001354,53.2198,12.0126,100.9575,259.1569,4.6216e-05,4.48e-06,0.0,0 STARLINK-3230,1 50845U 22001AU  23239.60032583  .00000448  00000-0  46216-4 0  9992,2 50845  53.2198  12.0126 0001354 100.9575 259.1569 15.08839548 90618,6917.882,95.438,540.683,538.81,0.0
50845.0,STARLINK-3230,PAYLOAD,2023-08-28 01:32:10,15.08836342,0.0001221,53.2192,9.9311,95.234,264.8791,5.532e-05,5.93e-06,0.0,0 STARLINK-3230,1 50845U 22001AU  23240.06400847  .00000593  00000-0  55320-4 0  9993,2 50845  53.2192   9.9311 0001221  95.2340 264.8791 15.08836342 91915,6917.892,95.438,540.601,538.912,0.0
50845.0,STARLINK-3230,PAYLOAD,2023-08-28 09:29:06,15.0883137,0.0001346,53.2203,8.4445,99.5804,260.534,1.0824e-05,-1.16e-06,0.0,0 STARLINK-3230,1 50845U 22001AU  23240.39521463 -.00000116  00000-0  10824-4 0  9999,2 50845  53.2203   8.4445 0001346  99.5804 260.5340 15.08831370 91964,6917.907,95.438,540.703,538.841,0.0
50845.0,STARLINK-3230,PAYLOAD,2023-08-28 15:50:38,15.08836819,0.0001405,53.221,7.2562,98.5997,261.5155,6.9239e-05,8.14e-06,0.0,0 STARLINK-3230,1 50845U 22001AU  23240.66017087  .00000814  00000-0  69239-4 0  9999,2 50845  53.2210   7.2562 0001405  98.5997 261.5155 15.08836819 90773,6917.89,95.438,540.727,538.783,0.0
50845.0,STARLINK-3230,PAYLOAD,2023-08-29 09:19:53,15.08839609,0.0001326,53.2194,3.9843,97.7576,262.3567,8.3077e-05,1.035e-05,0.0,0 STARLINK-3230,1 50845U 22001AU  23241.38881078  .00001035  00000-0  83077-4 0  9990,2 50845  53.2194   3.9843 0001326  97.7576 262.3567 15.08839609 92111,6917.882,95.438,540.664,538.829,0.0
50845.0,STARLINK-3230,PAYLOAD,2023-08-29 15:41:25,15.08845891,0.0001307,53.2193,2.7947,96.4405,263.6736,0.00012545,1.71e-05,0.0,0 STARLINK-3230,1 50845U 22001AU  23241.65376618  .00001710  00000-0  12545-3 0  9990,2 50845  53.2193   2.7947 0001307  96.4405 263.6736 15.08845891 90927,6917.862,95.437,540.632,538.823,0.0
50845.0,STARLINK-3230,PAYLOAD,2023-08-30 07:35:17,15.08840389,0.000136,53.2191,359.8217,95.2332,264.8815,0.00015898,2.243e-05,0.0,0 STARLINK-3230,1 50845U 22001AU  23242.31616903  .00002243  00000-0  15898-3 0  9994,2 50845  53.2191 359.8217 0001360  95.2332 264.8815 15.08840389 92252,6917.879,95.438,540.685,538.803,0.0
50845.0,STARLINK-3230,PAYLOAD,2023-08-30 13:56:49,15.08840404,0.0001426,53.2192,358.6315,82.3105,277.8049,5.6732e-05,6.15e-06,0.0,0 STARLINK-3230,1 50845U 22001AU  23242.58113255  .00000615  00000-0  56732-4 0  9999,2 50845  53.2192 358.6315 0001426  82.3105 277.8049 15.08840404 91066,6917.879,95.438,540.731,538.758,0.0
50845.0,STARLINK-3230,PAYLOAD,2023-08-31 07:26:04,15.08841655,0.0001288,53.2184,355.3612,86.1493,273.9646,4.8073e-05,4.77e-06,0.0,0 STARLINK-3230,1 50845U 22001AU  23243.30977060  .00000477  00000-0  48073-4 0  9997,2 50845  53.2184 355.3612 0001288  86.1493 273.9646 15.08841655 91170,6917.875,95.437,540.631,538.849,0.0
50845.0,STARLINK-3230,PAYLOAD,2023-09-01 00:55:18,15.08846368,0.0001322,53.2186,352.0904,90.4776,269.6368,-2.1692e-06,-3.22e-06,0.0,0 STARLINK-3230,1 50845U 22001AU  23244.03840730 -.00000322  00000-0 -21692-5 0  9991,2 50845  53.2186 352.0904 0001322  90.4776 269.6368 15.08846368 92519,6917.861,95.437,540.64,538.811,0.0
50845.0,STARLINK-3230,PAYLOAD,2023-09-01 13:38:23,15.08826877,5.23e-05,53.2178,349.7112,79.8319,280.2732,0.0003352,5.049e-05,0.0,0 STARLINK-3230,1 50845U 22001AU  23244.56833124  .00005049  00000-0  33520-3 0  9998,2 50845  53.2178 349.7112 0000523  79.8319 280.2732 15.08826877 91369,6917.921,95.438,540.147,539.424,0.0
50845.0,STARLINK-3230,PAYLOAD,2023-09-02 07:07:38,15.08840553,0.0001295,53.2146,346.4385,85.0046,275.1094,6.0817e-05,6.8e-06,0.0,0 STARLINK-3230,1 50845U 22001AU  23245.29696882  .00000680  00000-0  60817-4 0  9993,2 50845  53.2146 346.4385 0001295  85.0046 275.1094 15.08840553 92703,6917.879,95.438,540.64,538.848,0.0
50845.0,STARLINK-3230,PAYLOAD,2023-09-02 13:29:10,15.0884223,0.0001235,53.2167,345.2499,87.1729,272.9404,6.8317e-05,8e-06,0.0,0 STARLINK-3230,1 50845U 22001AU  23245.56192734  .00000800  00000-0  68317-4 0  9997,2 50845  53.2167 345.2499 0001235  87.1729 272.9404 15.08842230 91516,6917.874,95.437,540.593,538.884,0.0
50845.0,STARLINK-3230,PAYLOAD,2023-09-03 13:19:57,15.08844929,0.0001204,53.2164,340.7887,89.8992,270.2138,9.2306e-05,1.182e-05,0.0,0 STARLINK-3230,1 50845U 22001AU  23246.55552332  .00001182  00000-0  92306-4 0  9990,2 50845  53.2164 340.7887 0001204  89.8992 270.2138 15.08844929 91669,6917.865,95.437,540.563,538.897,0.0
50845.0,STARLINK-3230,PAYLOAD,2023-09-03 22:52:16,15.08837664,0.0001164,53.2165,339.0059,85.1781,274.9344,3.8128e-05,3.19e-06,0.0,0 STARLINK-3230,1 50845U 22001AU  23246.95296951  .00000319  00000-0  38128-4 0  9999,2 50845  53.2165 339.0059 0001164  85.1781 274.9344 15.08837664 92953,6917.888,95.438,540.558,538.947,0.0
50845.0,STARLINK-3230,PAYLOAD,2023-09-04 06:49:13,15.08823269,0.000144,53.2184,337.5187,106.7802,253.3348,-8.1935e-05,-1.591e-05,0.0,0 STARLINK-3230,1 50845U 22001AU  23247.28418395 -.00001591  00000-0 -81935-4 0  9993,2 50845  53.2184 337.5187 0001440 106.7802 253.3348 15.08823269 93008,6917.932,95.439,540.793,538.8,0.0
50845.0,STARLINK-3230,PAYLOAD,2023-09-04 13:10:45,15.08826174,0.0001448,53.2181,336.3301,103.9585,256.1568,-5.704e-05,-1.195e-05,0.0,0 STARLINK-3230,1 50845U 22001AU  23247.54914346 -.00001195  00000-0 -57040-4 0  9999,2 50845  53.2181 336.3301 0001448 103.9585 256.1568 15.08826174 91815,6917.923,95.438,540.789,538.786,0.0
50845.0,STARLINK-3230,PAYLOAD,2023-09-04 22:43:04,15.08831946,0.0001528,53.2191,334.546,104.1265,255.9897,8.1086e-06,-1.59e-06,0.0,0 STARLINK-3230,1 50845U 22001AU  23247.94658089 -.00000159  00000-0  81086-5 0  9998,2 50845  53.2191 334.5460 0001528 104.1265 255.9897 15.08831946 93108,6917.905,95.438,540.827,538.713,0.0
50845.0,STARLINK-3230,PAYLOAD,2023-09-05 06:39:59,15.08839704,0.0001433,53.2181,333.0582,105.0346,255.0804,4.3827e-05,4.1e-06,0.0,0 STARLINK-3230,1 50845U 22001AU  23248.27777625  .00000410  00000-0  43827-4 0  9992,2 50845  53.2181 333.0582 0001433 105.0346 255.0804 15.08839704 93155,6917.881,95.438,540.738,538.755,0.0
50845.0,STARLINK-3230,PAYLOAD,2023-09-06 06:30:46,15.08837229,0.0001409,53.218,328.598,106.4141,253.7007,0.00027281,4.056e-05,0.0,0 STARLINK-3230,1 50845U 22001AU  23249.27137650  .00004056  00000-0  27281-3 0  9996,2 50845  53.2180 328.5980 0001409 106.4141 253.7007 15.08837229 92076,6917.889,95.438,540.729,538.779,0.0
50845.0,STARLINK-3230,PAYLOAD,2023-09-07 06:21:33,15.08874964,0.00016,53.2165,324.1358,82.123,277.9944,-0.00044044,-7.298e-05,0.0,0 STARLINK-3230,1 50845U 22001AU  23250.26496820 -.00007298  00000-0 -44044-3 0  9993,2 50845  53.2165 324.1358 0001600  82.1230 277.9944 15.08874964 93450,6917.774,95.435,540.745,538.532,0.0
50845.0,STARLINK-3230,PAYLOAD,2023-09-07 09:32:20,15.08829066,0.0001173,53.2166,323.5413,96.4423,263.6703,0.00024796,3.659e-05,0.0,0 STARLINK-3230,1 50845U 22001AU  23250.39746489  .00003659  00000-0  24796-3 0  9993,2 50845  53.2166 323.5413 0001173  96.4423 263.6703 15.08829066 92247,6917.914,95.438,540.59,538.967,0.0
50845.0,STARLINK-3230,PAYLOAD,2023-09-07 14:18:29,15.08845021,0.0001185,53.2164,322.649,89.5982,270.5145,4.684e-05,4.58e-06,0.0,0 STARLINK-3230,1 50845U 22001AU  23250.59617721  .00000458  00000-0  46840-4 0  9990,2 50845  53.2164 322.6490 0001185  89.5982 270.5145 15.08845021 93502,6917.865,95.437,540.55,538.91,0.0
50845.0,STARLINK-3230,PAYLOAD,2023-09-08 10:58:30,15.08845525,0.0001454,53.2165,318.7836,85.5138,274.602,9.5986e-05,1.24e-05,0.0,0 STARLINK-3230,1 50845U 22001AU  23251.45729544  .00001240  00000-0  95986-4 0  9998,2 50845  53.2165 318.7836 0001454  85.5138 274.6020 15.08845525 92405,6917.864,95.437,540.734,538.723,0.0
50845.0,STARLINK-3230,PAYLOAD,2023-09-08 15:44:39,15.08849093,0.0001497,53.2164,317.8915,86.4931,273.6232,0.00012222,1.658e-05,0.0,0 STARLINK-3230,1 50845U 22001AU  23251.65601202  .00001658  00000-0  12222-3 0  9994,2 50845  53.2164 317.8915 0001497  86.4931 273.6232 15.08849093 93667,6917.853,95.437,540.753,538.682,0.0
50845.0,STARLINK-3230,PAYLOAD,2023-09-08 22:06:12,15.08837265,0.0001385,53.2197,316.7043,87.4503,272.6648,9.0528e-05,1.153e-05,0.0,0 STARLINK-3230,1 50845U 22001AU  23251.92097922  .00001153  00000-0  90528-4 0  9998,2 50845  53.2197 316.7043 0001385  87.4503 272.6648 15.08837265 93708,6917.889,95.438,540.712,538.796,0.0
50845.0,STARLINK-3230,PAYLOAD,2023-09-09 10:49:17,15.08839602,0.0001391,53.2169,314.3235,86.8653,273.2498,8.6434e-05,1.088e-05,0.0,0 STARLINK-3230,1 50845U 22001AU  23252.45089947  .00001088  00000-0  86434-4 0  9993,2 50845  53.2169 314.3235 0001391  86.8653 273.2498 15.08839602 92559,6917.882,95.438,540.709,538.784,0.0
50845.0,STARLINK-3230,PAYLOAD,2023-09-10 10:40:04,15.08848086,0.0001367,53.2168,309.863,95.2491,264.8658,5.2954e-05,5.55e-06,0.0,0 STARLINK-3230,1 50845U 22001AU  23253.44449583  .00000555  00000-0  52954-4 0  9997,2 50845  53.2168 309.8630 0001367  95.2491 264.8658 15.08848086 93936,6917.856,95.437,540.666,538.775,0.0
50845.0,STARLINK-3230,PAYLOAD,2023-09-11 02:33:56,15.08841579,0.0001466,53.2161,306.8895,89.111,271.005,-8.6788e-06,-4.26e-06,0.0,0 STARLINK-3230,1 50845U 22001AU  23254.10690132 -.00000426  00000-0 -86788-5 0  9991,2 50845  53.2161 306.8895 0001466  89.1110 271.0050 15.08841579 94037,6917.876,95.437,540.755,538.726,0.0
